[{"spaceTrack":{"CCSDS_OMM_VERS":"2.0","COMMENT":"GENERATED VIA SPACE-TRACK.ORG API","CREATION_DATE":"2021-05-12T14:46:11","ORIGINATOR":"18 SPCS","OBJECT_NAME":"STARLINK-1552","OBJECT_ID":"2020-055BB","CENTER_NAME":"EARTH","REF_FRAME":"TEME","TIME_SYSTEM":"UTC","MEAN_ELEMENT_THEORY":"SGP4","EPOCH":"2021-05-12T08:10:06.033504","MEAN_MOTION":15.06394598,"ECCENTRICITY":0.0000894,"INCLINATION":53.0588,"RA_OF_ASC_NODE":88.1132,"ARG_OF_PERICENTER":71.1145,"MEAN_ANOMALY":288.994,"EPHEMERIS_TYPE":0,"CLASSIFICATION_TYPE":"U","NORAD_CAT_ID":46076,"ELEMENT_SET_NO":999,"REV_AT_EPOCH":4314,"BSTAR":-0.000079373,"MEAN_MOTION_DOT":-0.00001463,"MEAN_MOTION_DDOT":0,"SEMIMAJOR_AXIS":6925.365,"PERIOD":95.592,"APOAPSIS":547.849,"PERIAPSIS":546.611,"OBJECT_TYPE":"PAYLOAD","RCS_SIZE":"LARGE","COUNTRY_CODE":"US","LAUNCH_DATE":"2020-08-07","SITE":"AFETR","DECAY_DATE":null,"DECAYED":0,"FILE":3035534,"GP_ID":177114333,"TLE_LINE0":"0 STARLINK-1552","TLE_LINE1":"1 46076U 20055BB  21132.34034761 -.00001463  00000-0 -79373-4 0  9991","TLE_LINE2":"2 46076  53.0588  88.1132 0000894  71.1145 288.9940 15.06394598 43149"},"version":"v1.0","launch":"5ed9819a1f30554030d45c29","longitude":128.245597966806,"latitude":-15.390410891806317,"height_km":551.7225134688679,"velocity_kms":7.5860779919166985,"id":"5f36cb5abd888300062740e2"},{"spaceTrack":{"CCSDS_OMM_VERS":"2.0","COMMENT":"GENERATED VIA SPACE-TRACK.ORG API","CREATION_DATE":"2021-05-12T04:44:40","ORIGINATOR":"18 SPCS","OBJECT_NAME":"STARLINK-1563","OBJECT_ID":"2020-055BD","CENTER_NAME":"EARTH","REF_FRAME":"TEME","TIME_SYSTEM":"UTC","MEAN_ELEMENT_THEORY":"SGP4","EPOCH":"2021-05-11T21:38:31.380576","MEAN_MOTION":15.06393586,"ECCENTRICITY":0.0001616,"INCLINATION":53.0571,"RA_OF_ASC_NODE":90.0687,"ARG_OF_PERICENTER":68.1789,"MEAN_ANOMALY":291.9371,"EPHEMERIS_TYPE":0,"CLASSIFICATION_TYPE":"U","NORAD_CAT_ID":46078,"ELEMENT_SET_NO":999,"REV_AT_EPOCH":4358,"BSTAR":0.000043418,"MEAN_MOTION_DOT":0.00000365,"MEAN_MOTION_DDOT":0,"SEMIMAJOR_AXIS":6925.368,"PERIOD":95.593,"APOAPSIS":548.352,"PERIAPSIS":546.114,"OBJECT_TYPE":"PAYLOAD","RCS_SIZE":"LARGE","COUNTRY_CODE":"US","LAUNCH_DATE":"2020-08-07","SITE":"AFETR","DECAY_DATE":null,"DECAYED":0,"FILE":3035157,"GP_ID":177105840,"TLE_LINE0":"0 STARLINK-1563","TLE_LINE1":"1 46078U 20055BD  21131.90175209  .00000365  00000-0  43418-4 0  9996","TLE_LINE2":"2 46078  53.0571  90.0687 0001616  68.1789 291.9371 15.06393586 43589"},"version":"v1.0","launch":"5ed9819a1f30554030d45c29","longitude":-18.73077971623919,"latitude":43.35154989990838,"height_km":550.4560171368257,"velocity_kms":7.5926578147787245,"id":"5f36cb5abd888300062740e7"},{"spaceTrack":{"CCSDS_OMM_VERS":"2.0","COMMENT":"GENERATED VIA SPACE-TRACK.ORG API","CREATION_DATE":"2021-05-12T04:44:40","ORIGINATOR":"18 SPCS","OBJECT_NAME":"STARLINK-1641","OBJECT_ID":"2020-057BK","CENTER_NAME":"EARTH","REF_FRAME":"TEME","TIME_SYSTEM":"UTC","MEAN_ELEMENT_THEORY":"SGP4","EPOCH":"2021-05-11T20:53:22.412256","MEAN_MOTION":15.06390202,"ECCENTRICITY":0.0001661,"INCLINATION":53.0552,"RA_OF_ASC_NODE":310.2152,"ARG_OF_PERICENTER":105.2379,"MEAN_ANOMALY":254.8794,"EPHEMERIS_TYPE":0,"CLASSIFICATION_TYPE":"U","NORAD_CAT_ID":46174,"ELEMENT_SET_NO":999,"REV_AT_EPOCH":4036,"BSTAR":0.000061625,"MEAN_MOTION_DOT":0.00000636,"MEAN_MOTION_DDOT":0,"SEMIMAJOR_AXIS":6925.379,"PERIOD":95.593,"APOAPSIS":548.394,"PERIAPSIS":546.093,"OBJECT_TYPE":"PAYLOAD","RCS_SIZE":"LARGE","COUNTRY_CODE":"US","LAUNCH_DATE":"2020-08-18","SITE":"AFETR","DECAY_DATE":null,"DECAYED":0,"FILE":3035157,"GP_ID":177105852,"TLE_LINE0":"0 STARLINK-1641","TLE_LINE1":"1 46174U 20057BK  21131.87039829  .00000636  00000-0  61625-4 0  9999","TLE_LINE2":"2 46174  53.0552 310.2152 0001661 105.2379 254.8794 15.06390202 40369"},"version":"v1.0","launch":"5ed981d91f30554030d45c2a","longitude":11.030880357241168,"latitude":-37.24634968460335,"height_km":559.8443855312389,"velocity_kms":7.581014341591132,"id":"5f487be7d76203000692e4fd"},{"spaceTrack":{"CCSDS_OMM_VERS":"2.0","COMMENT":"GENERATED VIA SPACE-TRACK.ORG API","CREATION_DATE":"2021-05-12T06:26:10","ORIGINATOR":"18 SPCS","OBJECT_NAME":"STARLINK-1627","OBJECT_ID":"2020-057BD","CENTER_NAME":"EARTH","REF_FRAME":"TEME","TIME_SYSTEM":"UTC","MEAN_ELEMENT_THEORY":"SGP4","EPOCH":"2021-05-11T19:07:10.614432","MEAN_MOTION":15.0639526,"ECCENTRICITY":0.0001377,"INCLINATION":53.0562,"RA_OF_ASC_NODE":260.5493,"ARG_OF_PERICENTER":115.4829,"MEAN_ANOMALY":244.6303,"EPHEMERIS_TYPE":0,"CLASSIFICATION_TYPE":"U","NORAD_CAT_ID":46168,"ELEMENT_SET_NO":999,"REV_AT_EPOCH":4171,"BSTAR":-0.000033894,"MEAN_MOTION_DOT":-0.00000786,"MEAN_MOTION_DDOT":0,"SEMIMAJOR_AXIS":6925.363,"PERIOD":95.592,"APOAPSIS":548.182,"PERIAPSIS":546.274,"OBJECT_TYPE":"PAYLOAD","RCS_SIZE":"LARGE","COUNTRY_CODE":"US","LAUNCH_DATE":"2020-08-18","SITE":"AFETR","DECAY_DATE":null,"DECAYED":0,"FILE":3035177,"GP_ID":177106640,"TLE_LINE0":"0 STARLINK-1627","TLE_LINE1":"1 46168U 20057BD  21131.79665063 -.00000786  00000-0 -33894-4 0  9993","TLE_LINE2":"2 46168  53.0562 260.5493 0001377 115.4829 244.6303 15.06395260 41717"},"version":"v1.0","launch":"5ed981d91f30554030d45c2a","longitude":15.092057141467631,"latitude":-53.20010874530812,"height_km":566.5468413278386,"velocity_kms":7.577235754154168,"id":"5f487be7d76203000692e4fe"},{"spaceTrack":{"CCSDS_OMM_VERS":"2.0","COMMENT":"GENERATED VIA SPACE-TRACK.ORG API","CREATION_DATE":"2021-05-12T04:44:40","ORIGINATOR":"18 SPCS","OBJECT_NAME":"STARLINK-1624","OBJECT_ID":"2020-057P","CENTER_NAME":"EARTH","REF_FRAME":"TEME","TIME_SYSTEM":"UTC","MEAN_ELEMENT_THEORY":"SGP4","EPOCH":"2021-05-11T20:21:30.712896","MEAN_MOTION":15.06394262,"ECCENTRICITY":0.0001132,"INCLINATION":53.0586,"RA_OF_ASC_NODE":270.3188,"ARG_OF_PERICENTER":135.4327,"MEAN_ANOMALY":224.6753,"EPHEMERIS_TYPE":0,"CLASSIFICATION_TYPE":"U","NORAD_CAT_ID":46130,"ELEMENT_SET_NO":999,"REV_AT_EPOCH":4217,"BSTAR":-0.000062336,"MEAN_MOTION_DOT":-0.0000121,"MEAN_MOTION_DDOT":0,"SEMIMAJOR_AXIS":6925.366,"PERIOD":95.593,"APOAPSIS":548.015,"PERIAPSIS":546.447,"OBJECT_TYPE":"PAYLOAD","RCS_SIZE":"LARGE","COUNTRY_CODE":"US","LAUNCH_DATE":"2020-08-18","SITE":"AFETR","DECAY_DATE":null,"DECAYED":0,"FILE":3035157,"GP_ID":177105346,"TLE_LINE0":"0 STARLINK-1624","TLE_LINE1":"1 46130U 20057P   21131.84827214 -.00001210  00000-0 -62336-4 0  9992","TLE_LINE2":"2 46130  53.0586 270.3188 0001132 135.4327 224.6753 15.06394262 42175"},"version":"v1.0","launch":"5ed981d91f30554030d45c2a","longitude":109.7108777195052,"latitude":-8.810331412299458,"height_km":550.3449023729936,"velocity_kms":7.5869819406124295,"id":"5f487be7d76203000692e4ff"},{"spaceTrack":{"CCSDS_OMM_VERS":"2.0","COMMENT":"GENERATED VIA SPACE-TRACK.ORG API","CREATION_DATE":"2021-05-12T06:16:11","ORIGINATOR":"18 SPCS","OBJECT_NAME":"STARLINK-1589","OBJECT_ID":"2020-057AT","CENTER_NAME":"EARTH","REF_FRAME":"TEME","TIME_SYSTEM":"UTC","MEAN_ELEMENT_THEORY":"SGP4","EPOCH":"2021-05-11T21:14:35.924928","MEAN_MOTION":15.06390016,"ECCENTRICITY":0.0001109,"INCLINATION":53.0567,"RA_OF_ASC_NODE":270.1534,"ARG_OF_PERICENTER":109.3324,"MEAN_ANOMALY":250.7785,"EPHEMERIS_TYPE":0,"CLASSIFICATION_TYPE":"U","NORAD_CAT_ID":46158,"ELEMENT_SET_NO":999,"REV_AT_EPOCH":4159,"BSTAR":0.000060587,"MEAN_MOTION_DOT":0.00000621,"MEAN_MOTION_DDOT":0,"SEMIMAJOR_AXIS":6925.379,"PERIOD":95.593,"APOAPSIS":548.012,"PERIAPSIS":546.476,"OBJECT_TYPE":"PAYLOAD","RCS_SIZE":"LARGE","COUNTRY_CODE":"US","LAUNCH_DATE":"2020-08-18","SITE":"AFETR","DECAY_DATE":null,"DECAYED":0,"FILE":3035166,"GP_ID":177106332,"TLE_LINE0":"0 STARLINK-1589","TLE_LINE1":"1 46158U 20057AT  21131.88513802  .00000621  00000-0  60587-4 0  9990","TLE_LINE2":"2 46158  53.0567 270.1534 0001109 109.3324 250.7785 15.06390016 41591"},"version":"v1.0","launch":"5ed981d91f30554030d45c2a","longitude":-83.37815054658834,"latitude":24.310177505727967,"height_km":547.5155008428073,"velocity_kms":7.591974347227042,"id":"5f487be7d76203000692e500"},{"spaceTrack":{"CCSDS_OMM_VERS":"2.0","COMMENT":"GENERATED VIA SPACE-TRACK.ORG API","CREATION_DATE":"2021-05-12T04:44:40","ORIGINATOR":"18 SPCS","OBJECT_NAME":"STARLINK-1618","OBJECT_ID":"2020-057J","CENTER_NAME":"EARTH","REF_FRAME":"TEME","TIME_SYSTEM":"UTC","MEAN_ELEMENT_THEORY":"SGP4","EPOCH":"2021-05-11T21:57:04.060512","MEAN_MOTION":15.06390009,"ECCENTRICITY":0.000147,"INCLINATION":53.0557,"RA_OF_ASC_NODE":310.033,"ARG_OF_PERICENTER":93.3387,"MEAN_ANOMALY":266.777,"EPHEMERIS_TYPE":0,"CLASSIFICATION_TYPE":"U","NORAD_CAT_ID":46125,"ELEMENT_SET_NO":999,"REV_AT_EPOCH":4163,"BSTAR":0.000057581,"MEAN_MOTION_DOT":0.00000576,"MEAN_MOTION_DDOT":0,"SEMIMAJOR_AXIS":6925.379,"PERIOD":95.593,"APOAPSIS":548.262,"PERIAPSIS":546.226,"OBJECT_TYPE":"PAYLOAD","RCS_SIZE":"LARGE","COUNTRY_CODE":"US","LAUNCH_DATE":"2020-08-18","SITE":"AFETR","DECAY_DATE":null,"DECAYED":0,"FILE":3035157,"GP_ID":177105095,"TLE_LINE0":"0 STARLINK-1618","TLE_LINE1":"1 46125U 20057J   21131.91463033  .00000576  00000-0  57581-4 0  9997","TLE_LINE2":"2 46125  53.0557 310.0330 0001470  93.3387 266.7770 15.06390009 41632"},"version":"v1.0","launch":"5ed981d91f30554030d45c2a","longitude":149.67887417660518,"latitude":-8.866411924090604,"height_km":549.9831401700567,"velocity_kms":7.587383676909628,"id":"5f487be7d76203000692e501"}]